{"type": "FeatureCollection", "features": [ {"type": "Feature", "properties": {"norad_id": 66909, "name": "SILVERSAT", "group": "last-30-days", "lat": -30.046465088306928, "lon": 60.142947503915316, "alt_km": 409.08830193394533, "timestamp": "2025-12-23T18:59:30.759095+00:00", "meta": {"OBJECT_NAME": "SILVERSAT", "OBJECT_ID": "1998-067XV", "EPOCH": "2025-12-22T12:16:28.422912", "MEAN_MOTION": 15.52898333, "ECCENTRICITY": 0.0003866, "INCLINATION": 51.6306, "RA_OF_ASC_NODE": 93.7929, "ARG_OF_PERICENTER": 288.2093, "MEAN_ANOMALY": 71.8476, "EPHEMERIS_TYPE": 0, "CLASSIFICATION_TYPE": "U", "NORAD_CAT_ID": 66909, "ELEMENT_SET_NO": 999, "REV_AT_EPOCH": 313, "BSTAR": 0.0011325313, "MEAN_MOTION_DOT": 0.00071888, "MEAN_MOTION_DDOT": 0}, "tle": {"line1": "1 66909U 98067XV  25356.51144008  .00071888  00000+0  11325-2 0  9999", "line2": "2 66909  51.6306  93.7929 0003866 288.2093  71.8476 15.52898333  3134"}}, "geometry": {"type": "Point", "coordinates": [60.142947503915316, -30.046465088306928]}}, {"type": "Feature", "properties": {"norad_id": 66910, "name": "1998-067XW", "group": "last-30-days", "lat": -23.117340284525994, "lon": 67.63275521311911, "alt_km": 409.8202264405427, "timestamp": "2025-12-23T18:59:30.759106+00:00", "meta": {"OBJECT_NAME": "1998-067XW", "OBJECT_ID": "1998-067XW", "EPOCH": "2025-12-23T06:45:57.042144", "MEAN_MOTION": 15.52963068, "ECCENTRICITY": 0.00039303, "INCLINATION": 51.6302, "RA_OF_ASC_NODE": 89.9385, "ARG_OF_PERICENTER": 266.0255, "MEAN_ANOMALY": 94.0285, "EPHEMERIS_TYPE": 0, "CLASSIFICATION_TYPE": "U", "NORAD_CAT_ID": 66910, "ELEMENT_SET_NO": 999, "REV_AT_EPOCH": 325, "BSTAR": 0.0010076721, "MEAN_MOTION_DOT": 0.00063997, "MEAN_MOTION_DDOT": 0}, "tle": {"line1": "1 66910U 98067XW  25357.28191021  .00063997  00000+0  10077-2 0  9998", "line2": "2 66910  51.6302  89.9385 0003930 266.0255  94.0285 15.52963068  3257"}}, "geometry": {"type": "Point", "coordinates": [67.63275521311911, -23.117340284525994]}}, {"type": "Feature", "properties": {"norad_id": 66911, "name": "1998-067XX", "group": "last-30-days", "lat": -8.64919928147059, "lon": 80.4394391050928, "alt_km": 407.69052891189676, "timestamp": "2025-12-23T18:59:30.759116+00:00", "meta": {"OBJECT_NAME": "1998-067XX", "OBJECT_ID": "1998-067XX", "EPOCH": "2025-12-23T06:41:16.956672", "MEAN_MOTION": 15.53428258, "ECCENTRICITY": 0.00036741, "INCLINATION": 51.6305, "RA_OF_ASC_NODE": 89.9162, "ARG_OF_PERICENTER": 271.3133, "MEAN_ANOMALY": 88.7437, "EPHEMERIS_TYPE": 0, "CLASSIFICATION_TYPE": "U", "NORAD_CAT_ID": 66911, "ELEMENT_SET_NO": 999, "REV_AT_EPOCH": 324, "BSTAR": 0.0011217181, "MEAN_MOTION_DOT": 0.00072588, "MEAN_MOTION_DDOT": 0}, "tle": {"line1": "1 66911U 98067XX  25357.27866848  .00072588  00000+0  11217-2 0  9997", "line2": "2 66911  51.6305  89.9162 0003674 271.3133  88.7437 15.53428258  3249"}}, "geometry": {"type": "Point", "coordinates": [80.4394391050928, -8.64919928147059]}}, {"type": "Feature", "properties": {"norad_id": 66912, "name": "1998-067XY", "group": "last-30-days", "lat": -49.72141457308178, "lon": 18.28846728595278, "alt_km": 412.25861011910456, "timestamp": "2025-12-23T18:59:30.759125+00:00", "meta": {"OBJECT_NAME": "1998-067XY", "OBJECT_ID": "1998-067XY", "EPOCH": "2025-12-22T13:57:42.061248", "MEAN_MOTION": 15.52056622, "ECCENTRICITY": 0.00039127, "INCLINATION": 51.6324, "RA_OF_ASC_NODE": 93.5129, "ARG_OF_PERICENTER": 278.0711, "MEAN_ANOMALY": 81.9835, "EPHEMERIS_TYPE": 0, "CLASSIFICATION_TYPE": "U", "NORAD_CAT_ID": 66912, "ELEMENT_SET_NO": 999, "REV_AT_EPOCH": 313, "BSTAR": 0.00086867978, "MEAN_MOTION_DOT": 0.0005325, "MEAN_MOTION_DDOT": 0}, "tle": {"line1": "1 66912U 98067XY  25356.58173682  .00053250  00000+0  86868-3 0  9998", "line2": "2 66912  51.6324  93.5129 0003912 278.0711  81.9835 15.52056622  3132"}}, "geometry": {"type": "Point", "coordinates": [18.28846728595278, -49.72141457308178]}}, {"type": "Feature", "properties": {"norad_id": 66913, "name": "2025-284A", "group": "last-30-days", "lat": 65.73005112226176, "lon": -86.15917470780617, "alt_km": 540.7279639009439, "timestamp": "2025-12-23T18:59:30.759134+00:00", "meta": {"OBJECT_NAME": "2025-284A", "OBJECT_ID": "2025-284A", "EPOCH": "2025-12-23T02:34:46.438752", "MEAN_MOTION": 15.08893564, "ECCENTRICITY": 0.0013475, "INCLINATION": 80.4035, "RA_OF_ASC_NODE": 116.7336, "ARG_OF_PERICENTER": 259.6514, "MEAN_ANOMALY": 100.3189, "EPHEMERIS_TYPE": 0, "CLASSIFICATION_TYPE": "U", "NORAD_CAT_ID": 66913, "ELEMENT_SET_NO": 999, "REV_AT_EPOCH": 269, "BSTAR": 0.00055263602, "MEAN_MOTION_DOT": 8.748e-05, "MEAN_MOTION_DDOT": 0}, "tle": {"line1": "1 66913U 25284A   25357.10748193  .00008748  00000+0  55264-3 0  9992", "line2": "2 66913  80.4035 116.7336 0013475 259.6514 100.3189 15.08893564  2694"}}, "geometry": {"type": "Point", "coordinates": [-86.15917470780617, 65.73005112226176]}}, {"type": "Feature", "properties": {"norad_id": 66914, "name": "2025-284B", "group": "last-30-days", "lat": -18.481816953016136, "lon": 112.51522234261135, "alt_km": 517.2993878113766, "timestamp": "2025-12-23T18:59:30.759143+00:00", "meta": {"OBJECT_NAME": "2025-284B", "OBJECT_ID": "2025-284B", "EPOCH": "2025-12-16T06:51:11.417184", "MEAN_MOTION": 15.18985981, "ECCENTRICITY": 0.00081793, "INCLINATION": 80.4045, "RA_OF_ASC_NODE": 125.2713, "ARG_OF_PERICENTER": 234.9626, "MEAN_ANOMALY": 125.0834, "EPHEMERIS_TYPE": 0, "CLASSIFICATION_TYPE": "U", "NORAD_CAT_ID": 66914, "ELEMENT_SET_NO": 999, "REV_AT_EPOCH": 166, "BSTAR": 0.00038444995, "MEAN_MOTION_DOT": 8.068e-05, "MEAN_MOTION_DDOT": 0}, "tle": {"line1": "1 66914U 25284B   25350.28554881  .00008068  00000+0  38445-3 0  9991", "line2": "2 66914  80.4045 125.2713 0008179 234.9626 125.0834 15.18985981  1668"}}, "geometry": {"type": "Point", "coordinates": [112.51522234261135, -18.481816953016136]}}, {"type": "Feature", "properties": {"norad_id": 66915, "name": "HULIANWANG DIGUI-105", "group": "last-30-days", "lat": -49.914438630032166, "lon": -13.606616391416578, "alt_km": 881.4145526552711, "timestamp": "2025-12-23T18:59:30.759152+00:00", "meta": {"OBJECT_NAME": "HULIANWANG DIGUI-105", "OBJECT_ID": "2025-285A", "EPOCH": "2025-12-23T07:26:45.578400", "MEAN_MOTION": 14.03719111, "ECCENTRICITY": 0.00080814, "INCLINATION": 50.0053, "RA_OF_ASC_NODE": 74.2286, "ARG_OF_PERICENTER": 318.0073, "MEAN_ANOMALY": 42.0211, "EPHEMERIS_TYPE": 0, "CLASSIFICATION_TYPE": "U", "NORAD_CAT_ID": 66915, "ELEMENT_SET_NO": 999, "REV_AT_EPOCH": 239, "BSTAR": 0.00011934152, "MEAN_MOTION_DOT": 3.7e-07, "MEAN_MOTION_DDOT": 0}, "tle": {"line1": "1 66915U 25285A   25357.31024975  .00000037  00000+0  11934-3 0  9992", "line2": "2 66915  50.0053  74.2286 0008081 318.0073  42.0211 14.03719111  2392"}}, "geometry": {"type": "Point", "coordinates": [-13.606616391416578, -49.914438630032166]}}, {"type": "Feature", "properties": {"norad_id": 66916, "name": "HULIANWANG DIGUI-106", "group": "last-30-days", "lat": -47.038736575261645, "lon": 7.900379393425387, "alt_km": 880.8852724540384, "timestamp": "2025-12-23T18:59:30.759161+00:00", "meta": {"OBJECT_NAME": "HULIANWANG DIGUI-106", "OBJECT_ID": "2025-285B", "EPOCH": "2025-12-23T07:22:37.460928", "MEAN_MOTION": 14.03703979, "ECCENTRICITY": 0.00068665, "INCLINATION": 50.0063, "RA_OF_ASC_NODE": 74.2154, "ARG_OF_PERICENTER": 311.333, "MEAN_ANOMALY": 48.6983, "EPHEMERIS_TYPE": 0, "CLASSIFICATION_TYPE": "U", "NORAD_CAT_ID": 66916, "ELEMENT_SET_NO": 999, "REV_AT_EPOCH": 239, "BSTAR": 0.00011574972, "MEAN_MOTION_DOT": 3.2e-07, "MEAN_MOTION_DDOT": 0}, "tle": {"line1": "1 66916U 25285B   25357.30737802  .00000032  00000+0  11575-3 0  9998", "line2": "2 66916  50.0063  74.2154 0006866 311.3330  48.6983 14.03703979  2392"}}, "geometry": {"type": "Point", "coordinates": [7.900379393425387, -47.038736575261645]}}, {"type": "Feature", "properties": {"norad_id": 66917, "name": "HULIANWANG DIGUI-107", "group": "last-30-days", "lat": -43.47887859884614, "lon": 19.460017471896645, "alt_km": 880.4802546673327, "timestamp": "2025-12-23T18:59:30.759170+00:00", "meta": {"OBJECT_NAME": "HULIANWANG DIGUI-107", "OBJECT_ID": "2025-285C", "EPOCH": "2025-12-23T07:20:04.221888", "MEAN_MOTION": 14.03663948, "ECCENTRICITY": 0.00075156, "INCLINATION": 50.0028, "RA_OF_ASC_NODE": 74.1985, "ARG_OF_PERICENTER": 320.7268, "MEAN_ANOMALY": 39.3091, "EPHEMERIS_TYPE": 0, "CLASSIFICATION_TYPE": "U", "NORAD_CAT_ID": 66917, "ELEMENT_SET_NO": 999, "REV_AT_EPOCH": 239, "BSTAR": 0.00011063865, "MEAN_MOTION_DOT": 2.3e-07, "MEAN_MOTION_DDOT": 0}, "tle": {"line1": "1 66917U 25285C   25357.30560442  .00000023  00000+0  11064-3 0  9996", "line2": "2 66917  50.0028  74.1985 0007515 320.7268  39.3091 14.03663948  2399"}}, "geometry": {"type": "Point", "coordinates": [19.460017471896645, -43.47887859884614]}}, {"type": "Feature", "properties": {"norad_id": 66918, "name": "HULIANWANG DIGUI-108", "group": "last-30-days", "lat": -41.894124989522076, "lon": 23.36461790665156, "alt_km": 880.9064501046896, "timestamp": "2025-12-23T18:59:30.759179+00:00", "meta": {"OBJECT_NAME": "HULIANWANG DIGUI-108", "OBJECT_ID": "2025-285D", "EPOCH": "2025-12-23T07:19:06.549888", "MEAN_MOTION": 14.03603059, "ECCENTRICITY": 0.00066597, "INCLINATION": 50.0061, "RA_OF_ASC_NODE": 74.1994, "ARG_OF_PERICENTER": 315.3403, "MEAN_ANOMALY": 44.6964, "EPHEMERIS_TYPE": 0, "CLASSIFICATION_TYPE": "U", "NORAD_CAT_ID": 66918, "ELEMENT_SET_NO": 999, "REV_AT_EPOCH": 239, "BSTAR": 0.00011769106, "MEAN_MOTION_DOT": 3.4e-07, "MEAN_MOTION_DDOT": 0}, "tle": {"line1": "1 66918U 25285D   25357.30493692  .00000034  00000+0  11769-3 0  9993", "line2": "2 66918  50.0061  74.1994 0006659 315.3403  44.6964 14.03603059  2391"}}, "geometry": {"type": "Point", "coordinates": [23.36461790665156, -41.894124989522076]}}]}